NORAD_CAT_ID,OBJECT_NAME,OBJECT_TYPE,EPOCH,MEAN_MOTION,ECCENTRICITY,INCLINATION,RA_OF_ASC_NODE,ARG_OF_PERICENTER,MEAN_ANOMALY,BSTAR,MEAN_MOTION_DOT,MEAN_MOTION_DDOT,TLE_LINE0,TLE_LINE1,TLE_LINE2,SEMIMAJOR_AXIS,PERIOD,APOGEE,PERIGEE,DECAYED
53553.0,STARLINK-4501,PAYLOAD,2023-09-29 17:40:29,15.08844182,0.0001316,53.2137,108.1284,89.9447,270.1696,0.00016159,2.285e-05,0.0,0 STARLINK-4501,1 53553U 22101AC  23272.73645061  .00002285  00000-0  16159-3 0  9997,2 53553  53.2137 108.1284 0001316  89.9447 270.1696 15.08844182 61650,6917.868,95.437,540.643,538.822,0.0
53553.0,STARLINK-4501,PAYLOAD,2023-09-29 20:51:15,15.08848009,0.0001326,53.2151,107.5355,82.7272,277.3871,0.00019086,2.752e-05,0.0,0 STARLINK-4501,1 53553U 22101AC  23272.86892960  .00002752  00000-0  19086-3 0  9994,2 53553  53.2151 107.5355 0001326  82.7272 277.3871 15.08848009 62338,6917.856,95.437,540.638,538.804,0.0
53553.0,STARLINK-4501,PAYLOAD,2023-09-30 19:06:39,15.08844187,0.0001436,53.215,103.3723,84.6063,275.5093,0.00012457,1.695e-05,0.0,0 STARLINK-4501,1 53553U 22101AC  23273.79629063  .00001695  00000-0  12457-3 0  9999,2 53553  53.2150 103.3723 0001436  84.6063 275.5093 15.08844187 61812,6917.868,95.437,540.726,538.739,0.0
53553.0,STARLINK-4501,PAYLOAD,2023-10-01 12:35:53,15.08850974,0.0001507,53.2154,100.1015,84.4453,275.6711,0.00031485,4.728e-05,0.0,0 STARLINK-4501,1 53553U 22101AC  23274.52492753  .00004728  00000-0  31485-3 0  9997,2 53553  53.2154 100.1015 0001507  84.4453 275.6711 15.08850974 62589,6917.847,95.437,540.754,538.669,0.0
53553.0,STARLINK-4501,PAYLOAD,2023-10-01 18:57:25,15.08855962,0.0001486,53.2157,98.9111,89.3509,270.7653,0.00034168,5.156e-05,0.0,0 STARLINK-4501,1 53553U 22101AC  23274.78988356  .00005156  00000-0  34168-3 0  9991,2 53553  53.2157  98.9111 0001486  89.3509 270.7653 15.08855962 62623,6917.832,95.437,540.725,538.669,0.0
53553.0,STARLINK-4501,PAYLOAD,2023-10-02 18:48:13,15.0884107,0.0001206,53.2155,94.4493,91.7773,268.3357,5.5435e-05,5.95e-06,0.0,0 STARLINK-4501,1 53553U 22101AC  23275.78348829  .00000595  00000-0  55435-4 0  9990,2 53553  53.2155  94.4493 0001206  91.7773 268.3357 15.08841070 62118,6917.877,95.437,540.576,538.908,0.0
53553.0,STARLINK-4501,PAYLOAD,2023-10-03 12:17:28,15.0883983,0.0001191,53.2153,91.178,92.6283,267.4846,5.8317e-05,6.4e-06,0.0,0 STARLINK-4501,1 53553U 22101AC  23276.51212967  .00000640  00000-0  58317-4 0  9998,2 53553  53.2153  91.1780 0001191  92.6283 267.4846 15.08839830 62886,6917.881,95.438,540.57,538.922,0.0
53553.0,STARLINK-4501,PAYLOAD,2023-10-03 17:03:37,15.08841926,0.0001244,53.215,90.2858,94.6455,265.4679,0.00011127,1.484e-05,0.0,0 STARLINK-4501,1 53553U 22101AC  23276.71084894  .00001484  00000-0  11127-3 0  9990,2 53553  53.2150  90.2858 0001244  94.6455 265.4679 15.08841926 62916,6917.875,95.437,540.6,538.879,0.0
53553.0,STARLINK-4501,PAYLOAD,2023-10-04 12:08:14,15.08845076,0.0001097,53.2154,86.7174,91.09,269.0218,0.00024147,3.558e-05,0.0,0 STARLINK-4501,1 53553U 22101AC  23277.50572831  .00003558  00000-0  24147-3 0  9991,2 53553  53.2154  86.7174 0001097  91.0900 269.0218 15.08845076 63036,6917.865,95.437,540.489,538.971,0.0
53553.0,STARLINK-4501,PAYLOAD,2023-10-04 18:29:47,15.08855174,0.0001002,53.2159,85.5286,87.8972,272.2135,0.00039666,6.033e-05,0.0,0 STARLINK-4501,1 53553U 22101AC  23277.77068382  .00006033  00000-0  39666-3 0  9994,2 53553  53.2159  85.5286 0001002  87.8972 272.2135 15.08855174 62415,6917.834,95.437,540.392,539.006,0.0
53553.0,STARLINK-4501,PAYLOAD,2023-10-04 20:05:10,15.08856772,0.0001003,53.2159,85.2312,87.4832,272.6275,0.00041818,6.377e-05,0.0,0 STARLINK-4501,1 53553U 22101AC  23277.83692299  .00006377  00000-0  41818-3 0  9994,2 53553  53.2159  85.2312 0001003  87.4832 272.6275 15.08856772 63082,6917.829,95.436,540.388,539.0,0.0
53553.0,STARLINK-4501,PAYLOAD,2023-10-05 10:23:38,15.0884337,0.0001522,53.2173,82.557,83.512,276.6045,0.00010672,1.411e-05,0.0,0 STARLINK-4501,1 53553U 22101AC  23278.43308872  .00001411  00000-0  10672-3 0  9990,2 53553  53.2173  82.5570 0001522  83.5120 276.6045 15.08843370 62513,6917.87,95.437,540.788,538.682,0.0
53553.0,STARLINK-4501,PAYLOAD,2023-10-05 11:59:02,15.08839446,0.0001523,53.2179,82.2592,89.2277,270.889,1.4618e-05,-5.5e-07,0.0,0 STARLINK-4501,1 53553U 22101AC  23278.49932981 -.00000055  00000-0  14618-4 0  9999,2 53553  53.2179  82.2592 0001523  89.2277 270.8890 15.08839446 63184,6917.882,95.438,540.801,538.693,0.0
53553.0,STARLINK-4501,PAYLOAD,2023-10-05 18:20:34,15.08843362,0.0001468,53.2182,81.0705,89.2782,270.8378,0.00014104,1.958e-05,0.0,0 STARLINK-4501,1 53553U 22101AC  23278.76428830  .00001958  00000-0  14104-3 0  9993,2 53553  53.2182  81.0705 0001468  89.2782 270.8378 15.08843362 63228,6917.87,95.437,540.751,538.72,0.0
53553.0,STARLINK-4501,PAYLOAD,2023-10-06 10:14:26,15.08836772,0.0001463,53.2177,78.0968,88.4709,271.645,0.0001476,2.062e-05,0.0,0 STARLINK-4501,1 53553U 22101AC  23279.42669232  .00002062  00000-0  14760-3 0  9995,2 53553  53.2177  78.0968 0001463  88.4709 271.6450 15.08836772 62668,6917.89,95.438,540.767,538.743,0.0
53553.0,STARLINK-4501,PAYLOAD,2023-10-06 11:49:49,15.08835218,0.0001457,53.2178,77.7991,89.6113,270.5046,0.00012659,1.727e-05,0.0,0 STARLINK-4501,1 53553U 22101AC  23279.49293308  .00001727  00000-0  12659-3 0  9991,2 53553  53.2178  77.7991 0001457  89.6113 270.5046 15.08835218 63334,6917.895,95.438,540.768,538.752,0.0
53553.0,STARLINK-4501,PAYLOAD,2023-10-06 18:11:21,15.08842019,0.0001419,53.2177,76.6095,87.3654,272.7501,0.00023765,3.496e-05,0.0,0 STARLINK-4501,1 53553U 22101AC  23279.75789220  .00003496  00000-0  23765-3 0  9998,2 53553  53.2177  76.6095 0001419  87.3654 272.7501 15.08842019 63370,6917.874,95.437,540.721,538.758,0.0
53553.0,STARLINK-4501,PAYLOAD,2023-10-07 10:05:13,15.08838179,0.0001417,53.2174,73.6358,87.1927,272.9228,0.00019528,2.821e-05,0.0,0 STARLINK-4501,1 53553U 22101AC  23280.42029589  .00002821  00000-0  19528-3 0  9992,2 53553  53.2174  73.6358 0001417  87.1927 272.9228 15.08838179 63476,6917.886,95.438,540.731,538.771,0.0
53553.0,STARLINK-4501,PAYLOAD,2023-10-07 16:26:46,15.08843459,0.0001368,53.2177,72.4464,83.9989,276.1159,0.00024056,3.543e-05,0.0,0 STARLINK-4501,1 53553U 22101AC  23280.68525465  .00003543  00000-0  24056-3 0  9998,2 53553  53.2177  72.4464 0001368  83.9989 276.1159 15.08843459 62858,6917.87,95.437,540.681,538.788,0.0
53553.0,STARLINK-4501,PAYLOAD,2023-10-07 19:37:32,15.08848823,0.0001491,53.2177,71.8512,90.3027,269.8136,0.0003677,5.57e-05,0.0,0 STARLINK-4501,1 53553U 22101AC  23280.81773289  .00005570  00000-0  36770-3 0  9990,2 53553  53.2177  71.8512 0001491  90.3027 269.8136 15.08848823 63537,6917.853,95.437,540.75,538.687,0.0
53553.0,STARLINK-4501,PAYLOAD,2023-10-08 09:56:00,15.08840151,0.0001502,53.2176,69.1754,86.8881,273.2283,0.00013691,1.892e-05,0.0,0 STARLINK-4501,1 53553U 22101AC  23281.41389702  .00001892  00000-0  13691-3 0  9990,2 53553  53.2176  69.1754 0001502  86.8881 273.2283 15.08840151 62969,6917.88,95.438,540.784,538.706,0.0
53553.0,STARLINK-4501,PAYLOAD,2023-10-08 19:28:19,15.08848009,0.0001461,53.2167,67.3902,90.1942,269.9218,0.00026834,3.986e-05,0.0,0 STARLINK-4501,1 53553U 22101AC  23281.81133357  .00003986  00000-0  26834-3 0  9996,2 53553  53.2167  67.3902 0001461  90.1942 269.9218 15.08848009 63684,6917.856,95.437,540.732,538.71,0.0
53553.0,STARLINK-4501,PAYLOAD,2023-10-09 12:57:33,15.08842652,0.0001363,53.2169,64.1176,106.1099,254.0043,9.6384e-05,1.246e-05,0.0,0 STARLINK-4501,1 53553U 22101AC  23282.53997455  .00001246  00000-0  96384-4 0  9998,2 53553  53.2169  64.1176 0001363 106.1099 254.0043 15.08842652 63797,6917.872,95.437,540.68,538.794,0.0
53553.0,STARLINK-4501,PAYLOAD,2023-10-09 16:08:20,15.08847105,0.0001483,53.2178,63.5246,94.8651,265.2511,0.00020364,2.955e-05,0.0,0 STARLINK-4501,1 53553U 22101AC  23282.67245416  .00002955  00000-0  20364-3 0  9998,2 53553  53.2178  63.5246 0001483  94.8651 265.2511 15.08847105 63150,6917.859,95.437,540.75,538.698,0.0
53553.0,STARLINK-4501,PAYLOAD,2023-10-09 19:19:06,15.08852654,0.0001543,53.2176,62.9297,93.1262,266.9906,0.00039048,5.934e-05,0.0,0 STARLINK-4501,1 53553U 22101AC  23282.80493273  .00005934  00000-0  39048-3 0  9998,2 53553  53.2176  62.9297 0001543  93.1262 266.9906 15.08852654 63830,6917.842,95.437,540.774,538.639,0.0
53553.0,STARLINK-4501,PAYLOAD,2023-10-10 12:48:20,15.08849656,0.0001517,53.2168,59.6584,104.1158,256.0003,0.00036884,5.589e-05,0.0,0 STARLINK-4501,1 53553U 22101AC  23283.53357239  .00005589  00000-0  36884-3 0  9991,2 53553  53.2168  59.6584 0001517 104.1158 256.0003 15.08849656 63949,6917.851,95.437,540.765,538.666,0.0
53553.0,STARLINK-4501,PAYLOAD,2023-10-10 15:59:06,15.08858193,0.0001353,53.2173,59.0637,94.724,265.3907,0.00068963,0.0001071,0.0,0 STARLINK-4501,1 53553U 22101AC  23283.66605107  .00010710  00000-0  68963-3 0  9990,2 53553  53.2173  59.0637 0001353  94.7240 265.3907 15.08858193 63966,6917.825,95.436,540.626,538.754,0.0
53553.0,STARLINK-4501,PAYLOAD,2023-10-11 09:28:21,15.08846343,0.0001483,53.2183,55.7935,89.9639,270.1523,0.00068865,0.00010691,0.0,0 STARLINK-4501,1 53553U 22101AC  23284.39469423  .00010691  00000-0  68865-3 0  9999,2 53553  53.2183  55.7935 0001483  89.9639 270.1523 15.08846343 63415,6917.861,95.437,540.752,538.7,0.0
53553.0,STARLINK-4501,PAYLOAD,2023-10-11 12:39:07,15.08842722,0.0001542,53.2183,55.1986,98.4259,261.6908,0.00027704,4.124e-05,0.0,0 STARLINK-4501,1 53553U 22101AC  23284.52717439  .00004124  00000-0  27704-3 0  9998,2 53553  53.2183  55.1986 0001542  98.4259 261.6908 15.08842722 64098,6917.872,95.437,540.804,538.67,0.0
53553.0,STARLINK-4501,PAYLOAD,2023-10-12 01:22:13,15.08839814,0.0001379,53.2174,52.8205,73.5072,286.6072,0.00033073,4.98e-05,0.0,0 STARLINK-4501,1 53553U 22101AC  23285.05709644  .00004980  00000-0  33073-3 0  9992,2 53553  53.2174  52.8205 0001379  73.5072 286.6072 15.08839814 63514,6917.881,95.438,540.7,538.792,0.0
